TISAT 1                 
1 36799U 10035E   26068.75703561  .00024554  00000+0  91005-3 0  9996
2 36799  98.0645   6.8512 0001343 159.3030 200.8262 15.27628633852505
STARLINK-31853          
1 59933U 24106M   26068.10787732 -.00003161  00000+0 -10546-3 0  9990
2 59933  43.0016 335.8243 0000423 271.3812  88.6991 15.27569782100437
